ORBCOMM FM05 [-]        
1 25117U 97084F   24012.26313217  .00002829  00000+0  89760-3 0  9991
2 25117  45.0174 345.8671 0000489 107.1237 252.9666 14.41986262365176
ORBCOMM FM06 [+]        
1 25118U 97084G   24012.92169898  .00003217  00000+0  10151-2 0  9998
2 25118  45.0165 342.9044 0000376 255.6435 137.6823 14.41969047366181
ORBCOMM FM07 [-]        
1 25119U 97084H   24012.96989295  .00003098  00000+0  98033-3 0  9997
2 25119  45.0160 343.1504 0001346  90.0787 270.0217 14.41907305366188
ORBCOMM FM03 [-]        
1 25158U 98007B   24012.89791073  .00002176  00000+0  85364-3 0  9992
2 25158 107.9731 146.9648 0045032  78.9185 281.7012 14.31695989349362
ORBCOMM FM04 [+]        
1 25159U 98007C   24013.18718296  .00002086  00000+0  81789-3 0  9999
2 25159 107.9717 150.4146 0040532  76.1379 284.4265 14.31954490349685
ORBCOMM FM17 [-]        
1 25413U 98046A   24012.61759470  .00001365  00000+0  54843-3 0  9991
2 25413  44.9934 194.3119 0002635 124.6583 235.4512 14.32685034328318
ORBCOMM FM18 [-]        
1 25414U 98046B   24012.41695334  .00002674  00000+0  97319-3 0  9997
2 25414  44.9933 124.8050 0005533 188.6124 171.4629 14.35302365329204
ORBCOMM FM19 [+]        
1 25415U 98046C   24012.74781626  .00002169  00000+0  80128-3 0  9993
2 25415  44.9947 124.4982 0004226 186.9141 329.1786 14.35154167329210
